ONEWEB-0564             
1 55801U 23029F   26061.16605332  .00000061  00000+0  11767-3 0  9997
2 55801  87.9174 295.8307 0001479  69.5798 290.5494 13.20771885147025
ONEWEB-0638             
1 55802U 23029G   26061.14311698  .00000217  00000+0  55038-3 0  9997
2 55802  87.8991 311.1173 0001083  71.4690 288.6557 13.14503491145338
ONEWEB-0639             
1 55803U 23029H   26061.13022958  .00000059  00000+0  11436-3 0  9993
2 55803  87.9239 326.3033 0002039 111.7739 248.3611 13.19726742144785
ONEWEB-0640             
1 55804U 23029J   26061.15261604  .00000211  00000+0  53480-3 0  9994
2 55804  87.8995 311.1056 0000943  94.9283 265.1954 13.14501388145352
ONEWEB-0641             
1 55805U 23029K   26061.12549311  .00000074  00000+0  15204-3 0  9995
2 55805  87.9245 326.2905 0001779  85.0941 275.0394 13.19725754144797
ONEWEB-0642             
1 55806U 23029L   26061.12075611  .00000109  00000+0  24083-3 0  9997
2 55806  87.9239 326.3066 0002152 102.2293 257.9081 13.19726241144781
ONEWEB-0643             
1 55807U 23029M   26061.12249313  .00000093  00000+0  21712-3 0  9998
2 55807  87.8991 311.0984 0002156  95.1782 264.9593 13.14502177145325
ONEWEB-0644             
1 55808U 23029N   26061.11602333  .00000053  00000+0  10058-3 0  9990
2 55808  87.9234 326.3145 0001925  92.3797 267.7556 13.19726152144788
ONEWEB-0645             
1 55809U 23029P   26061.13812406  .00000086  00000+0  18354-3 0  9990
2 55809  87.9236 326.3023 0001509  96.1089 264.0216 13.19724146144784
ONEWEB-0646             
1 55810U 23029Q   26061.15549719  .00000115  00000+0  25393-3 0  9992
2 55810  87.9239 326.2986 0001860  87.6440 272.4905 13.19727016144778
ONEWEB-0648             
1 55811U 23029R   26061.16688925 -.00000014  00000+0 -71154-4 0  9994
2 55811  87.9002 311.0544 0001683 114.2845 245.8461 13.14501270145339
ONEWEB-0649             
1 55812U 23029S   26061.10494852 -.00000106  00000+0 -29717-3 0  9992
2 55812  87.9240 326.3058 0001601  90.5995 269.5322 13.19724258144803
ONEWEB-0650             
1 55813U 23029T   26061.10021670  .00000075  00000+0  15549-3 0  9998
2 55813  87.9237 326.3099 0001852  94.6940 265.4404 13.19726558144775
ONEWEB-0652             
1 55814U 23029U   26061.14786495  .00000265  00000+0  68044-3 0  9995
2 55814  87.8994 311.0742 0001674  74.4119 285.7195 13.14501500145302
ONEWEB-0653             
1 55815U 23029V   26061.05588829  .00000249  00000+0  63682-3 0  9992
2 55815  87.8995 311.0827 0001485  77.0385 283.0911 13.14502026145325
ONEWEB-0654             
1 55816U 23029W   26061.12724833  .00000395  00000+0  10317-2 0  9996
2 55816  87.8988 311.0680 0001632  66.9709 293.1592 13.14501148145350
ONEWEB-0656             
1 55817U 23029X   26061.15974096  .00000147  00000+0  33042-3 0  9994
2 55817  87.9184 295.7972 0001586  67.8389 292.2913 13.20771886147022
