[{"OBJECT_NAME":"ONEWEB-0564","OBJECT_ID":"2023-029F","EPOCH":"2026-03-02T03:59:07.006848","MEAN_MOTION":13.20771885,"ECCENTRICITY":0.0001479,"INCLINATION":87.9174,"RA_OF_ASC_NODE":295.8307,"ARG_OF_PERICENTER":69.5798,"MEAN_ANOMALY":290.5494,"EPHEMERIS_TYPE":0,"CLASSIFICATION_TYPE":"U","NORAD_CAT_ID":55801,"ELEMENT_SET_NO":999,"REV_AT_EPOCH":14702,"BSTAR":0.00011767,"MEAN_MOTION_DOT":6.1e-7,"MEAN_MOTION_DDOT":0},{"OBJECT_NAME":"ONEWEB-0638","OBJECT_ID":"2023-029G","EPOCH":"2026-03-02T03:26:05.307072","MEAN_MOTION":13.14503491,"ECCENTRICITY":0.0001083,"INCLINATION":87.8991,"RA_OF_ASC_NODE":311.1173,"ARG_OF_PERICENTER":71.469,"MEAN_ANOMALY":288.6557,"EPHEMERIS_TYPE":0,"CLASSIFICATION_TYPE":"U","NORAD_CAT_ID":55802,"ELEMENT_SET_NO":999,"REV_AT_EPOCH":14533,"BSTAR":0.00055038,"MEAN_MOTION_DOT":2.17e-6,"MEAN_MOTION_DDOT":0},{"OBJECT_NAME":"ONEWEB-0639","OBJECT_ID":"2023-029H","EPOCH":"2026-03-02T03:07:31.835712","MEAN_MOTION":13.19726742,"ECCENTRICITY":0.0002039,"INCLINATION":87.9239,"RA_OF_ASC_NODE":326.3033,"ARG_OF_PERICENTER":111.7739,"MEAN_ANOMALY":248.3611,"EPHEMERIS_TYPE":0,"CLASSIFICATION_TYPE":"U","NORAD_CAT_ID":55803,"ELEMENT_SET_NO":999,"REV_AT_EPOCH":14478,"BSTAR":0.00011436,"MEAN_MOTION_DOT":5.9e-7,"MEAN_MOTION_DDOT":0},{"OBJECT_NAME":"ONEWEB-0640","OBJECT_ID":"2023-029J","EPOCH":"2026-03-02T03:39:46.025856","MEAN_MOTION":13.14501388,"ECCENTRICITY":9.43e-5,"INCLINATION":87.8995,"RA_OF_ASC_NODE":311.1056,"ARG_OF_PERICENTER":94.9283,"MEAN_ANOMALY":265.1954,"EPHEMERIS_TYPE":0,"CLASSIFICATION_TYPE":"U","NORAD_CAT_ID":55804,"ELEMENT_SET_NO":999,"REV_AT_EPOCH":14535,"BSTAR":0.0005348,"MEAN_MOTION_DOT":2.11e-6,"MEAN_MOTION_DDOT":0},{"OBJECT_NAME":"ONEWEB-0641","OBJECT_ID":"2023-029K","EPOCH":"2026-03-02T03:00:42.604704","MEAN_MOTION":13.19725754,"ECCENTRICITY":0.0001779,"INCLINATION":87.9245,"RA_OF_ASC_NODE":326.2905,"ARG_OF_PERICENTER":85.0941,"MEAN_ANOMALY":275.0394,"EPHEMERIS_TYPE":0,"CLASSIFICATION_TYPE":"U","NORAD_CAT_ID":55805,"ELEMENT_SET_NO":999,"REV_AT_EPOCH":14479,"BSTAR":0.00015204,"MEAN_MOTION_DOT":7.4e-7,"MEAN_MOTION_DDOT":0},{"OBJECT_NAME":"ONEWEB-0642","OBJECT_ID":"2023-029L","EPOCH":"2026-03-02T02:53:53.327904","MEAN_MOTION":13.19726241,"ECCENTRICITY":0.0002152,"INCLINATION":87.9239,"RA_OF_ASC_NODE":326.3066,"ARG_OF_PERICENTER":102.2293,"MEAN_ANOMALY":257.9081,"EPHEMERIS_TYPE":0,"CLASSIFICATION_TYPE":"U","NORAD_CAT_ID":55806,"ELEMENT_SET_NO":999,"REV_AT_EPOCH":14478,"BSTAR":0.00024083,"MEAN_MOTION_DOT":1.09e-6,"MEAN_MOTION_DDOT":0},{"OBJECT_NAME":"ONEWEB-0643","OBJECT_ID":"2023-029M","EPOCH":"2026-03-02T02:56:23.406432","MEAN_MOTION":13.14502177,"ECCENTRICITY":0.0002156,"INCLINATION":87.8991,"RA_OF_ASC_NODE":311.0984,"ARG_OF_PERICENTER":95.1782,"MEAN_ANOMALY":264.9593,"EPHEMERIS_TYPE":0,"CLASSIFICATION_TYPE":"U","NORAD_CAT_ID":55807,"ELEMENT_SET_NO":999,"REV_AT_EPOCH":14532,"BSTAR":0.00021712,"MEAN_MOTION_DOT":9.3e-7,"MEAN_MOTION_DDOT":0},{"OBJECT_NAME":"ONEWEB-0644","OBJECT_ID":"2023-029N","EPOCH":"2026-03-02T02:47:04.415712","MEAN_MOTION":13.19726152,"ECCENTRICITY":0.0001925,"INCLINATION":87.9234,"RA_OF_ASC_NODE":326.3145,"ARG_OF_PERICENTER":92.3797,"MEAN_ANOMALY":267.7556,"EPHEMERIS_TYPE":0,"CLASSIFICATION_TYPE":"U","NORAD_CAT_ID":55808,"ELEMENT_SET_NO":999,"REV_AT_EPOCH":14478,"BSTAR":0.00010058,"MEAN_MOTION_DOT":5.3e-7,"MEAN_MOTION_DDOT":0},{"OBJECT_NAME":"ONEWEB-0645","OBJECT_ID":"2023-029P","EPOCH":"2026-03-02T03:18:53.918784","MEAN_MOTION":13.19724146,"ECCENTRICITY":0.0001509,"INCLINATION":87.9236,"RA_OF_ASC_NODE":326.3023,"ARG_OF_PERICENTER":96.1089,"MEAN_ANOMALY":264.0216,"EPHEMERIS_TYPE":0,"CLASSIFICATION_TYPE":"U","NORAD_CAT_ID":55809,"ELEMENT_SET_NO":999,"REV_AT_EPOCH":14478,"BSTAR":0.00018354,"MEAN_MOTION_DOT":8.6e-7,"MEAN_MOTION_DDOT":0},{"OBJECT_NAME":"ONEWEB-0646","OBJECT_ID":"2023-029Q","EPOCH":"2026-03-02T03:43:54.957216","MEAN_MOTION":13.19727016,"ECCENTRICITY":0.000186,"INCLINATION":87.9239,"RA_OF_ASC_NODE":326.2986,"ARG_OF_PERICENTER":87.644,"MEAN_ANOMALY":272.4905,"EPHEMERIS_TYPE":0,"CLASSIFICATION_TYPE":"U","NORAD_CAT_ID":55810,"ELEMENT_SET_NO":999,"REV_AT_EPOCH":14477,"BSTAR":0.00025393,"MEAN_MOTION_DOT":1.15e-6,"MEAN_MOTION_DDOT":0},{"OBJECT_NAME":"ONEWEB-0648","OBJECT_ID":"2023-029R","EPOCH":"2026-03-02T04:00:19.231200","MEAN_MOTION":13.1450127,"ECCENTRICITY":0.0001683,"INCLINATION":87.9002,"RA_OF_ASC_NODE":311.0544,"ARG_OF_PERICENTER":114.2845,"MEAN_ANOMALY":245.8461,"EPHEMERIS_TYPE":0,"CLASSIFICATION_TYPE":"U","NORAD_CAT_ID":55811,"ELEMENT_SET_NO":999,"REV_AT_EPOCH":14533,"BSTAR":-7.1154e-5,"MEAN_MOTION_DOT":-1.4e-7,"MEAN_MOTION_DDOT":0},{"OBJECT_NAME":"ONEWEB-0649","OBJECT_ID":"2023-029S","EPOCH":"2026-03-02T02:31:07.552128","MEAN_MOTION":13.19724258,"ECCENTRICITY":0.0001601,"INCLINATION":87.924,"RA_OF_ASC_NODE":326.3058,"ARG_OF_PERICENTER":90.5995,"MEAN_ANOMALY":269.5322,"EPHEMERIS_TYPE":0,"CLASSIFICATION_TYPE":"U","NORAD_CAT_ID":55812,"ELEMENT_SET_NO":999,"REV_AT_EPOCH":14480,"BSTAR":-0.00029717,"MEAN_MOTION_DOT":-1.06e-6,"MEAN_MOTION_DDOT":0},{"OBJECT_NAME":"ONEWEB-0650","OBJECT_ID":"2023-029T","EPOCH":"2026-03-02T02:24:18.722880","MEAN_MOTION":13.19726558,"ECCENTRICITY":0.0001852,"INCLINATION":87.9237,"RA_OF_ASC_NODE":326.3099,"ARG_OF_PERICENTER":94.694,"MEAN_ANOMALY":265.4404,"EPHEMERIS_TYPE":0,"CLASSIFICATION_TYPE":"U","NORAD_CAT_ID":55813,"ELEMENT_SET_NO":999,"REV_AT_EPOCH":14477,"BSTAR":0.00015549,"MEAN_MOTION_DOT":7.5e-7,"MEAN_MOTION_DDOT":0},{"OBJECT_NAME":"ONEWEB-0652","OBJECT_ID":"2023-029U","EPOCH":"2026-03-02T03:32:55.531680","MEAN_MOTION":13.145015,"ECCENTRICITY":0.0001674,"INCLINATION":87.8994,"RA_OF_ASC_NODE":311.0742,"ARG_OF_PERICENTER":74.4119,"MEAN_ANOMALY":285.7195,"EPHEMERIS_TYPE":0,"CLASSIFICATION_TYPE":"U","NORAD_CAT_ID":55814,"ELEMENT_SET_NO":999,"REV_AT_EPOCH":14530,"BSTAR":0.00068044,"MEAN_MOTION_DOT":2.65e-6,"MEAN_MOTION_DDOT":0},{"OBJECT_NAME":"ONEWEB-0653","OBJECT_ID":"2023-029V","EPOCH":"2026-03-02T01:20:28.748256","MEAN_MOTION":13.14502026,"ECCENTRICITY":0.0001485,"INCLINATION":87.8995,"RA_OF_ASC_NODE":311.0827,"ARG_OF_PERICENTER":77.0385,"MEAN_ANOMALY":283.0911,"EPHEMERIS_TYPE":0,"CLASSIFICATION_TYPE":"U","NORAD_CAT_ID":55815,"ELEMENT_SET_NO":999,"REV_AT_EPOCH":14532,"BSTAR":0.00063682,"MEAN_MOTION_DOT":2.49e-6,"MEAN_MOTION_DDOT":0},{"OBJECT_NAME":"ONEWEB-0654","OBJECT_ID":"2023-029W","EPOCH":"2026-03-02T03:03:14.255712","MEAN_MOTION":13.14501148,"ECCENTRICITY":0.0001632,"INCLINATION":87.8988,"RA_OF_ASC_NODE":311.068,"ARG_OF_PERICENTER":66.9709,"MEAN_ANOMALY":293.1592,"EPHEMERIS_TYPE":0,"CLASSIFICATION_TYPE":"U","NORAD_CAT_ID":55816,"ELEMENT_SET_NO":999,"REV_AT_EPOCH":14535,"BSTAR":0.0010317,"MEAN_MOTION_DOT":3.95e-6,"MEAN_MOTION_DDOT":0},{"OBJECT_NAME":"ONEWEB-0656","OBJECT_ID":"2023-029X","EPOCH":"2026-03-02T03:50:01.618944","MEAN_MOTION":13.20771886,"ECCENTRICITY":0.0001586,"INCLINATION":87.9184,"RA_OF_ASC_NODE":295.7972,"ARG_OF_PERICENTER":67.8389,"MEAN_ANOMALY":292.2913,"EPHEMERIS_TYPE":0,"CLASSIFICATION_TYPE":"U","NORAD_CAT_ID":55817,"ELEMENT_SET_NO":999,"REV_AT_EPOCH":14702,"BSTAR":0.00033042,"MEAN_MOTION_DOT":1.47e-6,"MEAN_MOTION_DDOT":0}]
